DTC TEST OBJECT A       
1 69472U 26128A   26165.59828356  .00022719  00000+0  33018-3 0  9991
2 69472  54.9942 316.9881 0008246 279.1395  80.8708 15.55722543   825
DTC TEST OBJECT B       
1 69473U 26128B   26165.59736352  .00025228  00000+0  36013-3 0  9992
2 69473  55.0033 316.9856 0008301 280.0789  79.9310 15.56144226   815
TJS-25                  
1 69474U 26129A   26162.48255804  .00007407  00000+0  19774-2 0  9990
2 69474  16.5302  30.5351 7751889 199.9639  91.9387  1.72502163    78
2026-132A               
1 69502U 26132A   26165.48509284  .00000609  00000+0  55029-4 0  9995
2 69502  97.6916 229.1961 0012242 281.3285  78.6562 14.99042114   371
2026-132B               
1 69503U 26132B   26165.41819792  .00000306  00000+0  30061-4 0  9990
2 69503  97.6947 229.1315 0012184 283.7476  76.2390 14.99133072   368
BRO-22                  
1 69504U 26132C   26165.28377877  .00001425  00000+0  12001-3 0  9995
2 69504  97.6888 228.9971 0013698 295.8882  64.0929 14.99755875   346
2026-132D               
1 69505U 26132D   26164.41554847  .00001509  00000+0  12292-3 0  9999
2 69505  97.6871 228.1350 0011034 315.3023  44.7311 15.00977591   208
2026-132E               
1 69506U 26132E   26164.95816030  .00001978  00000+0  19337-3 0  9991
2 69506  97.6694 228.6931 0002823 327.8572  32.2476 14.93464297   293
2026-132F               
1 69507U 26132F   26164.41540372  .00003170  00000+0  25250-3 0  9993
2 69507  97.6869 228.1362 0010915 319.8335  40.2082 15.01040982   204
